METEOSAT-10 (MSG-3)     
1 38552U 12035B   25112.10350716  .00000001  00000+0  00000+0 0  9997
2 38552   3.6762  62.0427 0000739 343.9960 202.0810  1.00265074 46999
METOP-B                 
1 38771U 12049A   25112.18114853  .00000243  00000+0  13052-3 0  9996
2 38771  98.5816 167.7485 0001920 114.2747 245.8631 14.21482364653447
INSAT-3D                
1 39216U 13038B   25111.89003086 -.00000335  00000+0  00000+0 0  9990
2 39216   0.8343  88.1996 0001552 248.3305 323.6187  1.00274546 42858
FENGYUN 3C              
1 39260U 13052A   25112.23199952  .00000246  00000+0  14663-3 0  9996
2 39260  98.4530 101.6910 0015222 151.3975 208.8038 14.15609153599076
METEOR-M 2              
1 40069U 14037A   25112.18612462  .00000308  00000+0  16065-3 0  9996
2 40069  98.4661  99.1075 0005822 168.0825 192.0492 14.21276120559511
HIMAWARI-8              
1 40267U 14060A   25111.91707678 -.00000273  00000+0  00000+0 0  9996
2 40267   0.0379  72.7730 0000503 349.4588 258.8181  1.00273138 38521
FENGYUN 2G              
1 40367U 14090A   25111.98023881 -.00000291  00000+0  00000+0 0  9994
2 40367   4.5685  77.9136 0002156 109.8147 114.6273  1.00262831 37813
METEOSAT-11 (MSG-4)     
1 40732U 15034A   25111.89109955  .00000070  00000+0  00000+0 0  9990
2 40732   2.1492  72.2575 0000898 326.7746 141.5472  1.00280436  2992
ELEKTRO-L 2             
1 41105U 15074A   25112.17683728 -.00000109  00000+0  00000+0 0  9990
2 41105   5.6296  75.6935 0001965 238.5400 305.4423  1.00272113 34295
INSAT-3DR               
1 41752U 16054A   25111.90133610 -.00000075  00000+0  00000+0 0  9999
2 41752   0.1454  89.1007 0010793 187.4594 332.1504  1.00272042 31592
HIMAWARI-9              
1 41836U 16064A   25112.21155963 -.00000272  00000+0  00000+0 0  9992
2 41836   0.0181 162.7695 0001425 263.0484   1.6260  1.00269818 31081
GOES 16                 
1 41866U 16071A   25111.87311532 -.00000206  00000+0  00000+0 0  9997
2 41866   0.0544 280.4546 0000941 180.9207 342.1732  1.00130896 30878
CYGFM05                 
1 41884U 16078A   25111.44929366  .00020378  00000+0  50929-3 0  9997
2 41884  34.9599 132.7671 0009749 159.6295 200.4814 15.39168752463402
CYGFM04                 
1 41885U 16078B   25112.18117403  .00022433  00000+0  53056-3 0  9999
2 41885  34.9352 108.1296 0009507 189.6409 170.4128 15.40823592463802
