[
  {
    "OBJECT_NAME": "METEOSAT-10 (MSG-3)",
    "OBJECT_ID": "2012-035B",
    "EPOCH": "2025-04-22T02:29:03.018624",
    "MEAN_MOTION": 1.00265074,
    "ECCENTRICITY": 0.0000739,
    "INCLINATION": 3.6762,
    "RA_OF_ASC_NODE": 62.0427,
    "ARG_OF_PERICENTER": 343.996,
    "MEAN_ANOMALY": 202.081,
    "EPHEMERIS_TYPE": 0,
    "CLASSIFICATION_TYPE": "U",
    "NORAD_CAT_ID": 38552,
    "ELEMENT_SET_NO": 999,
    "REV_AT_EPOCH": 4699,
    "BSTAR": 0,
    "MEAN_MOTION_DOT": 1e-8,
    "MEAN_MOTION_DDOT": 0
  },
  {
    "OBJECT_NAME": "METOP-B",
    "OBJECT_ID": "2012-049A",
    "EPOCH": "2025-04-22T04:20:51.232992",
    "MEAN_MOTION": 14.21482364,
    "ECCENTRICITY": 0.000192,
    "INCLINATION": 98.5816,
    "RA_OF_ASC_NODE": 167.7485,
    "ARG_OF_PERICENTER": 114.2747,
    "MEAN_ANOMALY": 245.8631,
    "EPHEMERIS_TYPE": 0,
    "CLASSIFICATION_TYPE": "U",
    "NORAD_CAT_ID": 38771,
    "ELEMENT_SET_NO": 999,
    "REV_AT_EPOCH": 65344,
    "BSTAR": 0.00013052,
    "MEAN_MOTION_DOT": 0.00000243,
    "MEAN_MOTION_DDOT": 0
  },
  {
    "OBJECT_NAME": "INSAT-3D",
    "OBJECT_ID": "2013-038B",
    "EPOCH": "2025-04-21T21:21:38.666304",
    "MEAN_MOTION": 1.00274546,
    "ECCENTRICITY": 0.0001552,
    "INCLINATION": 0.8343,
    "RA_OF_ASC_NODE": 88.1996,
    "ARG_OF_PERICENTER": 248.3305,
    "MEAN_ANOMALY": 323.6187,
    "EPHEMERIS_TYPE": 0,
    "CLASSIFICATION_TYPE": "U",
    "NORAD_CAT_ID": 39216,
    "ELEMENT_SET_NO": 999,
    "REV_AT_EPOCH": 4285,
    "BSTAR": 0,
    "MEAN_MOTION_DOT": -0.00000335,
    "MEAN_MOTION_DDOT": 0
  },
  {
    "OBJECT_NAME": "FENGYUN 3C",
    "OBJECT_ID": "2013-052A",
    "EPOCH": "2025-04-22T05:34:04.758528",
    "MEAN_MOTION": 14.15609153,
    "ECCENTRICITY": 0.0015222,
    "INCLINATION": 98.453,
    "RA_OF_ASC_NODE": 101.691,
    "ARG_OF_PERICENTER": 151.3975,
    "MEAN_ANOMALY": 208.8038,
    "EPHEMERIS_TYPE": 0,
    "CLASSIFICATION_TYPE": "U",
    "NORAD_CAT_ID": 39260,
    "ELEMENT_SET_NO": 999,
    "REV_AT_EPOCH": 59907,
    "BSTAR": 0.00014663,
    "MEAN_MOTION_DOT": 0.00000246,
    "MEAN_MOTION_DDOT": 0
  },
  {
    "OBJECT_NAME": "METEOR-M 2",
    "OBJECT_ID": "2014-037A",
    "EPOCH": "2025-04-22T04:28:01.167168",
    "MEAN_MOTION": 14.2127612,
    "ECCENTRICITY": 0.0005822,
    "INCLINATION": 98.4661,
    "RA_OF_ASC_NODE": 99.1075,
    "ARG_OF_PERICENTER": 168.0825,
    "MEAN_ANOMALY": 192.0492,
    "EPHEMERIS_TYPE": 0,
    "CLASSIFICATION_TYPE": "U",
    "NORAD_CAT_ID": 40069,
    "ELEMENT_SET_NO": 999,
    "REV_AT_EPOCH": 55951,
    "BSTAR": 0.00016065,
    "MEAN_MOTION_DOT": 0.00000308,
    "MEAN_MOTION_DDOT": 0
  },
  {
    "OBJECT_NAME": "HIMAWARI-8",
    "OBJECT_ID": "2014-060A",
    "EPOCH": "2025-04-21T22:00:35.433792",
    "MEAN_MOTION": 1.00273138,
    "ECCENTRICITY": 0.0000503,
    "INCLINATION": 0.0379,
    "RA_OF_ASC_NODE": 72.773,
    "ARG_OF_PERICENTER": 349.4588,
    "MEAN_ANOMALY": 258.8181,
    "EPHEMERIS_TYPE": 0,
    "CLASSIFICATION_TYPE": "U",
    "NORAD_CAT_ID": 40267,
    "ELEMENT_SET_NO": 999,
    "REV_AT_EPOCH": 3852,
    "BSTAR": 0,
    "MEAN_MOTION_DOT": -0.00000273,
    "MEAN_MOTION_DDOT": 0
  },
  {
    "OBJECT_NAME": "FENGYUN 2G",
    "OBJECT_ID": "2014-090A",
    "EPOCH": "2025-04-21T23:31:32.633184",
    "MEAN_MOTION": 1.00262831,
    "ECCENTRICITY": 0.0002156,
    "INCLINATION": 4.5685,
    "RA_OF_ASC_NODE": 77.9136,
    "ARG_OF_PERICENTER": 109.8147,
    "MEAN_ANOMALY": 114.6273,
    "EPHEMERIS_TYPE": 0,
    "CLASSIFICATION_TYPE": "U",
    "NORAD_CAT_ID": 40367,
    "ELEMENT_SET_NO": 999,
    "REV_AT_EPOCH": 3781,
    "BSTAR": 0,
    "MEAN_MOTION_DOT": -0.00000291,
    "MEAN_MOTION_DDOT": 0
  },
  {
    "OBJECT_NAME": "METEOSAT-11 (MSG-4)",
    "OBJECT_ID": "2015-034A",
    "EPOCH": "2025-04-21T21:23:11.001120",
    "MEAN_MOTION": 1.00280436,
    "ECCENTRICITY": 0.0000898,
    "INCLINATION": 2.1492,
    "RA_OF_ASC_NODE": 72.2575,
    "ARG_OF_PERICENTER": 326.7746,
    "MEAN_ANOMALY": 141.5472,
    "EPHEMERIS_TYPE": 0,
    "CLASSIFICATION_TYPE": "U",
    "NORAD_CAT_ID": 40732,
    "ELEMENT_SET_NO": 999,
    "REV_AT_EPOCH": 299,
    "BSTAR": 0,
    "MEAN_MOTION_DOT": 7e-7,
    "MEAN_MOTION_DDOT": 0
  },
  {
    "OBJECT_NAME": "ELEKTRO-L 2",
    "OBJECT_ID": "2015-074A",
    "EPOCH": "2025-04-22T04:14:38.740992",
    "MEAN_MOTION": 1.00272113,
    "ECCENTRICITY": 0.0001965,
    "INCLINATION": 5.6296,
    "RA_OF_ASC_NODE": 75.6935,
    "ARG_OF_PERICENTER": 238.54,
    "MEAN_ANOMALY": 305.4423,
    "EPHEMERIS_TYPE": 0,
    "CLASSIFICATION_TYPE": "U",
    "NORAD_CAT_ID": 41105,
    "ELEMENT_SET_NO": 999,
    "REV_AT_EPOCH": 3429,
    "BSTAR": 0,
    "MEAN_MOTION_DOT": -0.00000109,
    "MEAN_MOTION_DDOT": 0
  },
  {
    "OBJECT_NAME": "INSAT-3DR",
    "OBJECT_ID": "2016-054A",
    "EPOCH": "2025-04-21T21:37:55.439040",
    "MEAN_MOTION": 1.00272042,
    "ECCENTRICITY": 0.0010793,
    "INCLINATION": 0.1454,
    "RA_OF_ASC_NODE": 89.1007,
    "ARG_OF_PERICENTER": 187.4594,
    "MEAN_ANOMALY": 332.1504,
    "EPHEMERIS_TYPE": 0,
    "CLASSIFICATION_TYPE": "U",
    "NORAD_CAT_ID": 41752,
    "ELEMENT_SET_NO": 999,
    "REV_AT_EPOCH": 3159,
    "BSTAR": 0,
    "MEAN_MOTION_DOT": -7.5e-7,
    "MEAN_MOTION_DDOT": 0
  },
  {
    "OBJECT_NAME": "HIMAWARI-9",
    "OBJECT_ID": "2016-064A",
    "EPOCH": "2025-04-22T05:04:38.752032",
    "MEAN_MOTION": 1.00269818,
    "ECCENTRICITY": 0.0001425,
    "INCLINATION": 0.0181,
    "RA_OF_ASC_NODE": 162.7695,
    "ARG_OF_PERICENTER": 263.0484,
    "MEAN_ANOMALY": 1.626,
    "EPHEMERIS_TYPE": 0,
    "CLASSIFICATION_TYPE": "U",
    "NORAD_CAT_ID": 41836,
    "ELEMENT_SET_NO": 999,
    "REV_AT_EPOCH": 3108,
    "BSTAR": 0,
    "MEAN_MOTION_DOT": -0.00000272,
    "MEAN_MOTION_DDOT": 0
  },
  {
    "OBJECT_NAME": "GOES 16",
    "OBJECT_ID": "2016-071A",
    "EPOCH": "2025-04-21T20:57:17.163648",
    "MEAN_MOTION": 1.00130896,
    "ECCENTRICITY": 0.0000941,
    "INCLINATION": 0.0544,
    "RA_OF_ASC_NODE": 280.4546,
    "ARG_OF_PERICENTER": 180.9207,
    "MEAN_ANOMALY": 342.1732,
    "EPHEMERIS_TYPE": 0,
    "CLASSIFICATION_TYPE": "U",
    "NORAD_CAT_ID": 41866,
    "ELEMENT_SET_NO": 999,
    "REV_AT_EPOCH": 3087,
    "BSTAR": 0,
    "MEAN_MOTION_DOT": -0.00000206,
    "MEAN_MOTION_DDOT": 0
  },
  {
    "OBJECT_NAME": "CYGFM05",
    "OBJECT_ID": "2016-078A",
    "EPOCH": "2025-04-21T10:46:58.972224",
    "MEAN_MOTION": 15.39168752,
    "ECCENTRICITY": 0.0009749,
    "INCLINATION": 34.9599,
    "RA_OF_ASC_NODE": 132.7671,
    "ARG_OF_PERICENTER": 159.6295,
    "MEAN_ANOMALY": 200.4814,
    "EPHEMERIS_TYPE": 0,
    "CLASSIFICATION_TYPE": "U",
    "NORAD_CAT_ID": 41884,
    "ELEMENT_SET_NO": 999,
    "REV_AT_EPOCH": 46340,
    "BSTAR": 0.00050929,
    "MEAN_MOTION_DOT": 0.00020378,
    "MEAN_MOTION_DDOT": 0
  },
  {
    "OBJECT_NAME": "CYGFM04",
    "OBJECT_ID": "2016-078B",
    "EPOCH": "2025-04-22T04:20:53.436192",
    "MEAN_MOTION": 15.40823592,
    "ECCENTRICITY": 0.0009507,
    "INCLINATION": 34.9352,
    "RA_OF_ASC_NODE": 108.1296,
    "ARG_OF_PERICENTER": 189.6409,
    "MEAN_ANOMALY": 170.4128,
    "EPHEMERIS_TYPE": 0,
    "CLASSIFICATION_TYPE": "U",
    "NORAD_CAT_ID": 41885,
    "ELEMENT_SET_NO": 999,
    "REV_AT_EPOCH": 46380,
    "BSTAR": 0.00053056,
    "MEAN_MOTION_DOT": 0.00022433,
    "MEAN_MOTION_DDOT": 0
  }
]